[
  {
    "OBJECT_NAME": "STARLINK-1494",
    "OBJECT_ID": "20038AG",
    "EPOCH": "2025-11-10T12:27:46.696608",
    "MEAN_MOTION": 15.52187099,
    "ECCENTRICITY": 0.0003679,
    "INCLINATION": 53.0553,
    "RA_OF_ASC_NODE": 13.4767,
    "ARG_OF_PERICENTER": 37.8853,
    "MEAN_ANOMALY": 322.2414,
    "EPHEMERIS_TYPE": 0,
    "CLASSIFICATION_TYPE": "U",
    "NORAD_CAT_ID": 45760,
    "ELEMENT_SET_NO": 999,
    "REV_AT_EPOCH": 29877,
    "BSTAR": 0.00069154,
    "MEAN_MOTION_DOT": 0.00042384,
    "MEAN_MOTION_DDOT": 0.0,
    "TLE_LINE1": "1 45760U 20038AG  25314.51929047  .00042384  00000+0  69154-3 0  9995",
    "TLE_LINE2": "2 45760  53.0553  13.4767 0003679  37.8853 322.2414 15.52187099298770",
    "COMMENT": "Grouped by shell and plane from TLE"
  },
  {
    "OBJECT_NAME": "STARLINK-30078",
    "OBJECT_ID": "23079U",
    "EPOCH": "2025-11-10T11:00:56.543328",
    "MEAN_MOTION": 15.27581756,
    "ECCENTRICITY": 7.35e-05,
    "INCLINATION": 42.9941,
    "RA_OF_ASC_NODE": 12.7159,
    "ARG_OF_PERICENTER": 126.6161,
    "MEAN_ANOMALY": 233.4758,
    "EPHEMERIS_TYPE": 0,
    "CLASSIFICATION_TYPE": "U",
    "NORAD_CAT_ID": 56841,
    "ELEMENT_SET_NO": 999,
    "REV_AT_EPOCH": 13521,
    "BSTAR": 0.00014957000000000002,
    "MEAN_MOTION_DOT": 3.856e-05,
    "MEAN_MOTION_DDOT": 0.0,
    "TLE_LINE1": "1 56841U 23079U   25314.45898777  .00003856  00000+0  14957-3 0  9995",
    "TLE_LINE2": "2 56841  42.9941  12.7159 0000735 126.6161 233.4758 15.27581756135219",
    "COMMENT": "Grouped by shell and plane from TLE"
  },
  {
    "OBJECT_NAME": "STARLINK-31054",
    "OBJECT_ID": "23203B",
    "EPOCH": "2025-11-11T05:38:34.406016",
    "MEAN_MOTION": 15.27582667,
    "ECCENTRICITY": 0.0001181,
    "INCLINATION": 43.0073,
    "RA_OF_ASC_NODE": 16.2058,
    "ARG_OF_PERICENTER": 234.7168,
    "MEAN_ANOMALY": 125.3573,
    "EPHEMERIS_TYPE": 0,
    "CLASSIFICATION_TYPE": "U",
    "NORAD_CAT_ID": 58619,
    "ELEMENT_SET_NO": 999,
    "REV_AT_EPOCH": 10544,
    "BSTAR": 2.4942000000000003e-05,
    "MEAN_MOTION_DOT": 4.24e-06,
    "MEAN_MOTION_DDOT": 0.0,
    "TLE_LINE1": "1 58619U 23203B   25315.23512044  .00000424  00000+0  24942-4 0  9990",
    "TLE_LINE2": "2 58619  43.0073  16.2058 0001181 234.7168 125.3573 15.27582667105441",
    "COMMENT": "Grouped by shell and plane from TLE"
  },
  {
    "OBJECT_NAME": "STARLINK-31134",
    "OBJECT_ID": "23203D",
    "EPOCH": "2025-11-11T04:35:53.263680",
    "MEAN_MOTION": 15.27574606,
    "ECCENTRICITY": 0.0001153,
    "INCLINATION": 42.9979,
    "RA_OF_ASC_NODE": 16.7371,
    "ARG_OF_PERICENTER": 272.8747,
    "MEAN_ANOMALY": 87.1972,
    "EPHEMERIS_TYPE": 0,
    "CLASSIFICATION_TYPE": "U",
    "NORAD_CAT_ID": 58621,
    "ELEMENT_SET_NO": 999,
    "REV_AT_EPOCH": 10543,
    "BSTAR": 0.00017051,
    "MEAN_MOTION_DOT": 4.432e-05,
    "MEAN_MOTION_DDOT": 0.0,
    "TLE_LINE1": "1 58621U 23203D   25315.19158870  .00004432  00000+0  17051-3 0  9996",
    "TLE_LINE2": "2 58621  42.9979  16.7371 0001153 272.8747  87.1972 15.27574606105436",
    "COMMENT": "Grouped by shell and plane from TLE"
  },
  {
    "OBJECT_NAME": "STARLINK-31133",
    "OBJECT_ID": "23203E",
    "EPOCH": "2025-11-11T05:33:02.175552",
    "MEAN_MOTION": 15.27526714,
    "ECCENTRICITY": 0.0002775,
    "INCLINATION": 43.0068,
    "RA_OF_ASC_NODE": 16.1809,
    "ARG_OF_PERICENTER": 295.735,
    "MEAN_ANOMALY": 64.3215,
    "EPHEMERIS_TYPE": 0,
    "CLASSIFICATION_TYPE": "U",
    "NORAD_CAT_ID": 58622,
    "ELEMENT_SET_NO": 999,
    "REV_AT_EPOCH": 10544,
    "BSTAR": 0.00044510000000000003,
    "MEAN_MOTION_DOT": 0.00011986,
    "MEAN_MOTION_DDOT": 0.0,
    "TLE_LINE1": "1 58622U 23203E   25315.23127518  .00011986  00000+0  44510-3 0  9999",
    "TLE_LINE2": "2 58622  43.0068  16.1809 0002775 295.7350  64.3215 15.27526714105448",
    "COMMENT": "Grouped by shell and plane from TLE"
  },
  {
    "OBJECT_NAME": "STARLINK-31068",
    "OBJECT_ID": "23203F",
    "EPOCH": "2025-11-11T03:53:19.691808",
    "MEAN_MOTION": 15.27576445,
    "ECCENTRICITY": 5.99e-05,
    "INCLINATION": 43.0017,
    "RA_OF_ASC_NODE": 16.5152,
    "ARG_OF_PERICENTER": 250.6395,
    "MEAN_ANOMALY": 109.4392,
    "EPHEMERIS_TYPE": 0,
    "CLASSIFICATION_TYPE": "U",
    "NORAD_CAT_ID": 58623,
    "ELEMENT_SET_NO": 999,
    "REV_AT_EPOCH": 10543,
    "BSTAR": 5.2926e-05,
    "MEAN_MOTION_DOT": 1.195e-05,
    "MEAN_MOTION_DDOT": 0.0,
    "TLE_LINE1": "1 58623U 23203F   25315.16203347  .00001195  00000+0  52926-4 0  9999",
    "TLE_LINE2": "2 58623  43.0017  16.5152 0000599 250.6395 109.4392 15.27576445105431",
    "COMMENT": "Grouped by shell and plane from TLE"
  },
  {
    "OBJECT_NAME": "STARLINK-31129",
    "OBJECT_ID": "23203G",
    "EPOCH": "2025-11-10T13:42:13.182624",
    "MEAN_MOTION": 15.27569446,
    "ECCENTRICITY": 8.02e-05,
    "INCLINATION": 43.0019,
    "RA_OF_ASC_NODE": 19.8172,
    "ARG_OF_PERICENTER": 192.5039,
    "MEAN_ANOMALY": 167.5793,
    "EPHEMERIS_TYPE": 0,
    "CLASSIFICATION_TYPE": "U",
    "NORAD_CAT_ID": 58624,
    "ELEMENT_SET_NO": 999,
    "REV_AT_EPOCH": 10534,
    "BSTAR": 0.0002092,
    "MEAN_MOTION_DOT": 5.497e-05,
    "MEAN_MOTION_DDOT": 0.0,
    "TLE_LINE1": "1 58624U 23203G   25314.57098591  .00005497  00000+0  20920-3 0  9994",
    "TLE_LINE2": "2 58624  43.0019  19.8172 0000802 192.5039 167.5793 15.27569446105341",
    "COMMENT": "Grouped by shell and plane from TLE"
  },
  {
    "OBJECT_NAME": "STARLINK-30774",
    "OBJECT_ID": "23203H",
    "EPOCH": "2025-11-11T06:52:23.180160",
    "MEAN_MOTION": 15.27593125,
    "ECCENTRICITY": 0.0001338,
    "INCLINATION": 43.0032,
    "RA_OF_ASC_NODE": 15.727,
    "ARG_OF_PERICENTER": 277.8983,
    "MEAN_ANOMALY": 82.1717,
    "EPHEMERIS_TYPE": 0,
    "CLASSIFICATION_TYPE": "U",
    "NORAD_CAT_ID": 58625,
    "ELEMENT_SET_NO": 999,
    "REV_AT_EPOCH": 10545,
    "BSTAR": 0.00035810999999999997,
    "MEAN_MOTION_DOT": 9.609e-05,
    "MEAN_MOTION_DDOT": 0.0,
    "TLE_LINE1": "1 58625U 23203H   25315.28637940  .00009609  00000+0  35811-3 0  9995",
    "TLE_LINE2": "2 58625  43.0032  15.7270 0001338 277.8983  82.1717 15.27593125105452",
    "COMMENT": "Grouped by shell and plane from TLE"
  },
  {
    "OBJECT_NAME": "STARLINK-31086",
    "OBJECT_ID": "23203J",
    "EPOCH": "2025-11-11T04:41:13.552800",
    "MEAN_MOTION": 15.27577133,
    "ECCENTRICITY": 8.71e-05,
    "INCLINATION": 42.9992,
    "RA_OF_ASC_NODE": 15.9095,
    "ARG_OF_PERICENTER": 292.8481,
    "MEAN_ANOMALY": 67.2279,
    "EPHEMERIS_TYPE": 0,
    "CLASSIFICATION_TYPE": "U",
    "NORAD_CAT_ID": 58626,
    "ELEMENT_SET_NO": 999,
    "REV_AT_EPOCH": 10544,
    "BSTAR": 0.00011475000000000001,
    "MEAN_MOTION_DOT": 2.897e-05,
    "MEAN_MOTION_DDOT": 0.0,
    "TLE_LINE1": "1 58626U 23203J   25315.19529575  .00002897  00000+0  11475-3 0  9992",
    "TLE_LINE2": "2 58626  42.9992  15.9095 0000871 292.8481  67.2279 15.27577133105441",
    "COMMENT": "Grouped by shell and plane from TLE"
  },
  {
    "OBJECT_NAME": "STARLINK-31065",
    "OBJECT_ID": "23203K",
    "EPOCH": "2025-11-11T04:57:49.443264",
    "MEAN_MOTION": 15.27608834,
    "ECCENTRICITY": 0.0001798,
    "INCLINATION": 43.0021,
    "RA_OF_ASC_NODE": 16.0048,
    "ARG_OF_PERICENTER": 283.2941,
    "MEAN_ANOMALY": 76.7711,
    "EPHEMERIS_TYPE": 0,
    "CLASSIFICATION_TYPE": "U",
    "NORAD_CAT_ID": 58627,
    "ELEMENT_SET_NO": 999,
    "REV_AT_EPOCH": 10544,
    "BSTAR": 0.00028969,
    "MEAN_MOTION_DOT": 7.725e-05,
    "MEAN_MOTION_DDOT": 0.0,
    "TLE_LINE1": "1 58627U 23203K   25315.20682226  .00007725  00000+0  28969-3 0  9999",
    "TLE_LINE2": "2 58627  43.0021  16.0048 0001798 283.2941  76.7711 15.27608834105440",
    "COMMENT": "Grouped by shell and plane from TLE"
  },
  {
    "OBJECT_NAME": "STARLINK-31092",
    "OBJECT_ID": "23203L",
    "EPOCH": "2025-11-11T05:12:40.707648",
    "MEAN_MOTION": 15.27576605,
    "ECCENTRICITY": 0.0001226,
    "INCLINATION": 43.0039,
    "RA_OF_ASC_NODE": 16.0661,
    "ARG_OF_PERICENTER": 268.7613,
    "MEAN_ANOMALY": 91.3098,
    "EPHEMERIS_TYPE": 0,
    "CLASSIFICATION_TYPE": "U",
    "NORAD_CAT_ID": 58628,
    "ELEMENT_SET_NO": 999,
    "REV_AT_EPOCH": 10544,
    "BSTAR": 4.201e-05,
    "MEAN_MOTION_DOT": 8.94e-06,
    "MEAN_MOTION_DDOT": 0.0,
    "TLE_LINE1": "1 58628U 23203L   25315.21713782  .00000894  00000+0  42010-4 0  9997",
    "TLE_LINE2": "2 58628  43.0039  16.0661 0001226 268.7613  91.3098 15.27576605105442",
    "COMMENT": "Grouped by shell and plane from TLE"
  },
  {
    "OBJECT_NAME": "STARLINK-31091",
    "OBJECT_ID": "23203M",
    "EPOCH": "2025-11-11T05:45:15.039360",
    "MEAN_MOTION": 15.2760186,
    "ECCENTRICITY": 0.0001029,
    "INCLINATION": 43.0009,
    "RA_OF_ASC_NODE": 19.6868,
    "ARG_OF_PERICENTER": 186.8848,
    "MEAN_ANOMALY": 173.199,
    "EPHEMERIS_TYPE": 0,
    "CLASSIFICATION_TYPE": "U",
    "NORAD_CAT_ID": 58629,
    "ELEMENT_SET_NO": 999,
    "REV_AT_EPOCH": 10540,
    "BSTAR": 0.00012692999999999998,
    "MEAN_MOTION_DOT": 3.235e-05,
    "MEAN_MOTION_DDOT": 0.0,
    "TLE_LINE1": "1 58629U 23203M   25315.23975740  .00003235  00000+0  12693-3 0  9999",
    "TLE_LINE2": "2 58629  43.0009  19.6868 0001029 186.8848 173.1990 15.27601860105407",
    "COMMENT": "Grouped by shell and plane from TLE"
  },
  {
    "OBJECT_NAME": "STARLINK-31084",
    "OBJECT_ID": "23203N",
    "EPOCH": "2025-11-11T05:39:44.253504",
    "MEAN_MOTION": 15.27550369,
    "ECCENTRICITY": 8.17e-05,
    "INCLINATION": 42.9991,
    "RA_OF_ASC_NODE": 19.6574,
    "ARG_OF_PERICENTER": 292.3775,
    "MEAN_ANOMALY": 67.6989,
    "EPHEMERIS_TYPE": 0,
    "CLASSIFICATION_TYPE": "U",
    "NORAD_CAT_ID": 58630,
    "ELEMENT_SET_NO": 999,
    "REV_AT_EPOCH": 10540,
    "BSTAR": 0.0002733,
    "MEAN_MOTION_DOT": 7.259e-05,
    "MEAN_MOTION_DDOT": 0.0,
    "TLE_LINE1": "1 58630U 23203N   25315.23592886  .00007259  00000+0  27330-3 0  9991",
    "TLE_LINE2": "2 58630  42.9991  19.6574 0000817 292.3775  67.6989 15.27550369105409",
    "COMMENT": "Grouped by shell and plane from TLE"
  }
]